[
    {
        "CCSDS_OMM_VERS": "3.0",
        "COMMENT": "GENERATED VIA SPACE-TRACK.ORG API",
        "CREATION_DATE": "2025-04-13T03:46:00",
        "ORIGINATOR": "18 SPCS",
        "OBJECT_NAME": "COSMOS 2466 (GLONASS)",
        "OBJECT_ID": "2010-041A",
        "CENTER_NAME": "EARTH",
        "REF_FRAME": "TEME",
        "TIME_SYSTEM": "UTC",
        "MEAN_ELEMENT_THEORY": "SGP4",
        "EPOCH": "2025-04-12T09:03:26.131392",
        "MEAN_MOTION": "2.13112957",
        "ECCENTRICITY": "0.00175230",
        "INCLINATION": "63.8920",
        "RA_OF_ASC_NODE": "204.8449",
        "ARG_OF_PERICENTER": "176.2629",
        "MEAN_ANOMALY": "238.7593",
        "EPHEMERIS_TYPE": "0",
        "CLASSIFICATION_TYPE": "U",
        "NORAD_CAT_ID": "37137",
        "ELEMENT_SET_NO": "999",
        "REV_AT_EPOCH": "11366",
        "BSTAR": "0.00000000000000",
        "MEAN_MOTION_DOT": "0.00000001",
        "MEAN_MOTION_DDOT": "0.0000000000000",
        "SEMIMAJOR_AXIS": "25507.150",
        "PERIOD": "675.698",
        "APOAPSIS": "19173.711",
        "PERIAPSIS": "19084.319",
        "OBJECT_TYPE": "PAYLOAD",
        "RCS_SIZE": "LARGE",
        "COUNTRY_CODE": "CIS",
        "LAUNCH_DATE": "2010-09-02",
        "SITE": "TTMTR",
        "DECAY_DATE": null,
        "FILE": "4700252",
        "GP_ID": "285479990",
        "TLE_LINE0": "0 COSMOS 2466 (GLONASS)",
        "TLE_LINE1": "1 37137U 10041A   25102.37738578  .00000001  00000-0  00000-0 0  9996",
        "TLE_LINE2": "2 37137  63.8920 204.8449 0017523 176.2629 238.7593  2.13112957113668"
    }
]